{
  "norad_id": 67535,
  "name": "STARLINK-36574",
  "history": [
    {
      "epoch": "2026-03-28T16:10:06.400416Z",
      "apogee_km": 344.9128259277386,
      "perigee_km": 343.00764912867817,
      "latitude_deg": 7.546176686231805e-05,
      "longitude_deg": -95.04592825617951,
      "height_km": 347.0692699200725,
      "semi_major_axis_km": 6722.097237528208,
      "eccentricity": 0.00014171,
      "inclination_deg": 97.2867,
      "raan_deg": 333.5715,
      "arg_perigee_deg": 86.5688,
      "mean_anomaly_deg": 273.574,
      "mean_motion_rev_day": 15.75235811
    },
    {
      "epoch": "2026-03-29T04:21:57.154464Z",
      "apogee_km": 345.4152995653967,
      "perigee_km": 342.5597410691671,
      "latitude_deg": 8.546662004386177e-05,
      "longitude_deg": 82.02416451858284,
      "height_km": 346.67082070670847,
      "semi_major_axis_km": 6722.124520317282,
      "eccentricity": 0.0002124,
      "inclination_deg": 97.2861,
      "raan_deg": 334.104,
      "arg_perigee_deg": 70.2851,
      "mean_anomaly_deg": 289.8644,
      "mean_motion_rev_day": 15.75226221
    },
    {
      "epoch": "2026-03-30T04:45:37.991232Z",
      "apogee_km": 345.6736020887738,
      "perigee_km": 342.32947260921446,
      "latitude_deg": 2.1941610374918542e-05,
      "longitude_deg": 76.16776626035865,
      "height_km": 346.84422487286145,
      "semi_major_axis_km": 6722.138537348994,
      "eccentricity": 0.00024874,
      "inclination_deg": 97.2846,
      "raan_deg": 335.1696,
      "arg_perigee_deg": 78.9123,
      "mean_anomaly_deg": 281.2422,
      "mean_motion_rev_day": 15.75221294
    }
  ]
}